TIBA-1                  
1 44800U 19080A   26159.49330472  .00000172  00000+0  00000+0 0  9997
2 44800   0.0513 346.3442 0002168 114.2370   9.4106  1.00274399 23974
INMARSAT GX5            
1 44801U 19080B   26159.27458663  .00000090  00000+0  00000+0 0  9996
2 44801   0.0377   8.7919 0002464  66.8794 290.8881  1.00270443  6694
JCSAT-18 (KACIFIC 1)    
1 44868U 19091A   26159.49697284 -.00000185  00000+0  00000+0 0  9995
2 44868   0.0221 231.3079 0000284 347.3501   7.1590  1.00270757 23926
ELEKTRO-L 3             
1 44903U 19095A   26159.50136477 -.00000080  00000+0  00000+0 0  9997
2 44903   0.2338  81.2027 0001437 351.4939  80.6371  1.00272553 23620
SHIJIAN-20 (SJ-20)      
1 44910U 19097A   26159.28126000  .00000151  00000+0  00000+0 0  9991
2 44910   4.8953  75.1714 0013807  53.0296 274.5048  1.00274850 23606
TJS-5                   
1 44978U 20002A   26159.29363439 -.00000326  00000+0  00000+0 0  9998
2 44978   0.0340 284.4831 0007546 122.5246  62.8811  1.00270090 23623
GSAT-30                 
1 45026U 20005A   26159.50275144 -.00000148  00000+0  00000+0 0  9997
2 45026   0.0518 106.3029 0003435 338.0773  76.4903  1.00269591 23423
EUTELSAT KONNECT        
1 45027U 20005B   26159.34514382  .00000065  00000+0  00000+0 0  9997
2 45027   0.0707  98.1212 0001101 136.5515 153.5601  1.00269625 24240
JCSAT-17                
1 45245U 20013A   26159.51324678 -.00000307  00000+0  00000+0 0  9994
2 45245   5.3923 356.7764 0002807  77.6712 143.2390  1.00271970 23148
GEO-KOMPSAT-2B          
1 45246U 20013B   26159.51168677 -.00000328  00000+0  00000+0 0  9993
2 45246   0.0408 163.4998 0000325 149.8478 256.0226  1.00270793 23193
BEIDOU-3 G2             
1 45344U 20017A   26159.50214477 -.00000126  00000+0  00000+0 0  9991
2 45344   2.8459  47.2073 0002545  28.0227  82.4850  1.00273818 23170
AEHF-6 (USA 298)        
1 45465U 20022B   26159.51350678 -.00000283  00000+0  00000+0 0  9990
2 45465   2.5680 301.0175 0043145  17.4065 261.0656  1.00275431 22928
BEIDOU-3 G3             
1 45807U 20040A   26159.50821146 -.00000338  00000+0  00000+0 0  9993
2 45807   2.4251  67.4281 0002897 338.0568 144.9509  1.00272091 21981
APSTAR-6D               
1 45863U 20045A   26159.01000512 -.00000302  00000+0  00000+0 0  9993
2 45863   0.0489 106.8068 0002233 339.1651 308.0700  1.00270839 21760
KOREASAT 116            
1 45920U 20048A   26159.36670742 -.00000346  00000+0  00000+0 0  9994
2 45920   0.0111 320.0197 0000993 109.9274  75.0435  1.00273270 21559
EXPRESS 103             
1 45985U 20053A   26159.00638300 -.00000266  00000+0  00000+0 0  9997
2 45985   0.0219 278.4547 0000483 124.2603 312.4882  1.00273722 21550
EXPRESS 80              
1 45986U 20053B   26159.06548244 -.00000121  00000+0  00000+0 0  9991
2 45986   0.0209 296.5836 0002255 218.5880 204.8483  1.00272944 21539
BSAT-4B                 
1 46112U 20056A   26159.50803812  .00000000  00000+0  00000+0 0  9995
2 46112   0.0109 184.4142 0003986 292.9455  72.2506  1.00266725 21309
MEV-2                   
1 46113U 20056B   26159.34349715  .00000005  00000+0  00000+0 0  9990
2 46113   0.0117 333.7031 0000503 182.8200 222.8651  1.00274113 80468
GALAXY 30 (G-30)        
1 46114U 20056C   26159.46155593  .00000053  00000+0  00000+0 0  9996
2 46114   0.0154 305.7746 0002197 127.8829 224.3498  1.00272709 21201
GAOFEN-13 01            
1 46610U 20071A   26159.36705410 -.00000347  00000+0  00000+0 0  9999
2 46610   0.4974  84.9453 0041155 123.2261 298.8925  1.00275983 20830
TIANTONG-1 2            
1 46916U 20082A   26159.51108012 -.00000341  00000+0  00000+0 0  9996
2 46916   0.8021 326.2005 0001392 110.5995 129.0067  1.00267910 20566
LUCAS (JDRS-1)          
1 47202U 20089A   26159.50431145 -.00000220  00000+0  00000+0 0  9993
2 47202   0.0280 276.4851 0002348 151.9336 100.8176  1.00273506 20330
SXM-7                   
1 47240U 20096A   26159.39818441 -.00000189  00000+0  00000+0 0  9992
2 47240   0.0393 146.2126 0004012 338.8206 189.9606  1.00271986  7351
CMS-01                  
1 47256U 20099A   26159.50275144 -.00000148  00000+0  00000+0 0  9997
2 47256   0.0752  99.1828 0003602 183.2067 238.4773  1.00270067 20116
TURKSAT 5A              
1 47306U 21001A   26159.27857332  .00000170  00000+0  00000+0 0  9990
2 47306   0.0141  46.5734 0000172  74.0625 267.2625  1.00271228 19879
TIANTONG-1 3            
1 47321U 21003A   26159.50249144 -.00000141  00000+0  00000+0 0  9990
2 47321   1.7636 338.7503 0003487 104.8181  75.7708  1.00272487 19876
TJS-6                   
1 47613U 21010A   26159.58603354  .00000060  00000+0  00000+0 0  9996
2 47613   0.2735 264.5110 0003563 213.3227 168.6296  1.00276680 19723
SBIRS GEO-5 (USA 315)   
1 48618U 21042A   26159.50491810 -.00000258  00000+0  00000+0 0  9991
2 48618   5.1153 329.0507 0001575 118.5837  84.8470  1.00271517 18689
FENGYUN 4B              
1 48808U 21047A   26159.59815966 -.00000312  00000+0  00000+0 0  9999
2 48808   0.1307  76.3289 0005128 287.6246 212.9372  1.00264260 18485
SXM-8                   
1 48838U 21049A   26159.39818441 -.00000190  00000+0  00000+0 0  9997
2 48838   0.0179  12.3350 0004998  22.2115 280.4522  1.00273730 18495
TIANLIAN 1-05           
1 49011U 21063A   26159.27579999  .00000124  00000+0  00000+0 0  9992
2 49011   1.5698  80.7788 0000917 319.0840 332.9207  1.00271864 17986
