OBJECT_NAME,OBJECT_ID,EPOCH,MEAN_MOTION,ECCENTRICITY,INCLINATION,RA_OF_ASC_NODE,ARG_OF_PERICENTER,MEAN_ANOMALY,EPHEMERIS_TYPE,CLASSIFICATION_TYPE,NORAD_CAT_ID,ELEMENT_SET_NO,REV_AT_EPOCH,BSTAR,MEAN_MOTION_DOT,MEAN_MOTION_DDOT
TIBA-1,2019-080A,2026-06-08T11:50:21.527808,1.00274399,.0002168,0.0513,346.3442,114.2370,9.4106,0,U,44800,999,2397,0,.172E-5,0
INMARSAT GX5,2019-080B,2026-06-08T06:35:24.284832,1.00270443,.0002464,0.0377,8.7919,66.8794,290.8881,0,U,44801,999,669,0,.9E-6,0
JCSAT-18 (KACIFIC 1),2019-091A,2026-06-08T11:55:38.453376,1.00270757,.0000284,0.0221,231.3079,347.3501,7.1590,0,U,44868,999,2392,0,-.185E-5,0
ELEKTRO-L 3,2019-095A,2026-06-08T12:01:57.916128,1.00272553,.0001437,0.2338,81.2027,351.4939,80.6371,0,U,44903,999,2362,0,-.8E-6,0
SHIJIAN-20 (SJ-20),2019-097A,2026-06-08T06:45:00.864000,1.00274850,.0013807,4.8953,75.1714,53.0296,274.5048,0,U,44910,999,2360,0,.151E-5,0
TJS-5,2020-002A,2026-06-08T07:02:50.011296,1.00270090,.0007546,0.0340,284.4831,122.5246,62.8811,0,U,44978,999,2362,0,-.326E-5,0
GSAT-30,2020-005A,2026-06-08T12:03:57.724416,1.00269591,.0003435,0.0518,106.3029,338.0773,76.4903,0,U,45026,999,2342,0,-.148E-5,0
EUTELSAT KONNECT,2020-005B,2026-06-08T08:17:00.426048,1.00269625,.0001101,0.0707,98.1212,136.5515,153.5601,0,U,45027,999,2424,0,.65E-6,0
JCSAT-17,2020-013A,2026-06-08T12:19:04.521792,1.00271970,.0002807,5.3923,356.7764,77.6712,143.2390,0,U,45245,999,2314,0,-.307E-5,0
GEO-KOMPSAT-2B,2020-013B,2026-06-08T12:16:49.736928,1.00270793,.0000325,0.0408,163.4998,149.8478,256.0226,0,U,45246,999,2319,0,-.328E-5,0
BEIDOU-3 G2,2020-017A,2026-06-08T12:03:05.308128,1.00273818,.0002545,2.8459,47.2073,28.0227,82.4850,0,U,45344,999,2317,0,-.126E-5,0
AEHF-6 (USA 298),2020-022B,2026-06-08T12:19:26.985792,1.00275431,.0043145,2.5680,301.0175,17.4065,261.0656,0,U,45465,999,2292,0,-.283E-5,0
BEIDOU-3 G3,2020-040A,2026-06-08T12:11:49.470144,1.00272091,.0002897,2.4251,67.4281,338.0568,144.9509,0,U,45807,999,2198,0,-.338E-5,0
APSTAR-6D,2020-045A,2026-06-08T00:14:24.442368,1.00270839,.00022336,0.0489,106.8068,339.1651,308.0700,0,U,45863,999,2176,0,-.302E-5,0
KOREASAT 116,2020-048A,2026-06-08T08:48:03.521088,1.00273270,.0000993,0.0111,320.0197,109.9274,75.0435,0,U,45920,999,2155,0,-.346E-5,0
EXPRESS 103,2020-053A,2026-06-08T00:09:11.491200,1.00273722,.00004838,0.0219,278.4547,124.2603,312.4882,0,U,45985,999,2155,0,-.266E-5,0
EXPRESS 80,2020-053B,2026-06-08T01:34:17.682816,1.00272944,.00022557,0.0209,296.5836,218.5880,204.8483,0,U,45986,999,2153,0,-.121E-5,0
BSAT-4B,2020-056A,2026-06-08T12:11:34.493568,1.00266725,.0003986,0.0109,184.4142,292.9455,72.2506,0,U,46112,999,2130,0,0,0
MEV-2,2020-056B,2026-06-08T08:14:38.153760,1.00274113,.0000503,0.0117,333.7031,182.8200,222.8651,0,U,46113,999,8046,0,.5E-7,0
GALAXY 30 (G-30),2020-056C,2026-06-08T11:04:38.432352,1.00272709,.0002197,0.0154,305.7746,127.8829,224.3498,0,U,46114,999,2120,0,.53E-6,0
GAOFEN-13 01,2020-071A,2026-06-08T08:48:33.474240,1.00275983,.0041155,0.4974,84.9453,123.2261,298.8925,0,U,46610,999,2083,0,-.347E-5,0
TIANTONG-1 2,2020-082A,2026-06-08T12:15:57.322368,1.00267910,.0001392,0.8021,326.2005,110.5995,129.0067,0,U,46916,999,2056,0,-.341E-5,0
LUCAS (JDRS-1),2020-089A,2026-06-08T12:06:12.509280,1.00273506,.0002348,0.0280,276.4851,151.9336,100.8176,0,U,47202,999,2033,0,-.22E-5,0
SXM-7,2020-096A,2026-06-08T09:33:23.133024,1.00271986,.0004012,0.0393,146.2126,338.8206,189.9606,0,U,47240,999,735,0,-.189E-5,0
CMS-01,2020-099A,2026-06-08T12:03:57.724416,1.00270067,.0003602,0.0752,99.1828,183.2067,238.4773,0,U,47256,999,2011,0,-.148E-5,0
TURKSAT 5A,2021-001A,2026-06-08T06:41:08.734848,1.00271228,.0000172,0.0141,46.5734,74.0625,267.2625,0,U,47306,999,1987,0,.17E-5,0
TIANTONG-1 3,2021-003A,2026-06-08T12:03:35.260416,1.00272487,.0003487,1.7636,338.7503,104.8181,75.7708,0,U,47321,999,1987,0,-.141E-5,0
TJS-6,2021-010A,2026-06-08T14:03:53.297856,1.00276680,.0003563,0.2735,264.5110,213.3227,168.6296,0,U,47613,999,1972,0,.6E-6,0
SBIRS GEO-5 (USA 315),2021-042A,2026-06-08T12:07:04.923840,1.00271517,.0001575,5.1153,329.0507,118.5837,84.8470,0,U,48618,999,1868,0,-.258E-5,0
FENGYUN 4B,2021-047A,2026-06-08T14:21:20.994624,1.00264260,.0005128,0.1307,76.3289,287.6246,212.9372,0,U,48808,999,1848,0,-.312E-5,0
SXM-8,2021-049A,2026-06-08T09:33:23.133024,1.00273730,.0004998,0.0179,12.3350,22.2115,280.4522,0,U,48838,999,1849,0,-.19E-5,0
TIANLIAN 1-05,2021-063A,2026-06-08T06:37:09.119136,1.00271864,.0000917,1.5698,80.7788,319.0840,332.9207,0,U,49011,999,1798,0,.124E-5,0
